[{"OBJECT_NAME":"STARLINK-30492","OBJECT_ID":"2023-147J","EPOCH":"2026-03-09T22:00:01.999584","MEAN_MOTION":15.24234925,"ECCENTRICITY":0.00017232,"INCLINATION":43.0012,"RA_OF_ASC_NODE":323.9961,"ARG_OF_PERICENTER":274.4276,"MEAN_ANOMALY":21.8813,"EPHEMERIS_TYPE":0,"CLASSIFICATION_TYPE":"U","NORAD_CAT_ID":57921,"ELEMENT_SET_NO":999,"REV_AT_EPOCH":572,"BSTAR":0.041747131,"MEAN_MOTION_DOT":0.01125465,"MEAN_MOTION_DDOT":0},{"OBJECT_NAME":"KUIPER-00248","OBJECT_ID":"2025-301W","EPOCH":"2026-03-09T06:00:06.073920","MEAN_MOTION":15.37429186,"ECCENTRICITY":0.00111963,"INCLINATION":51.8685,"RA_OF_ASC_NODE":67.7485,"ARG_OF_PERICENTER":42.2591,"MEAN_ANOMALY":317.9256,"EPHEMERIS_TYPE":0,"CLASSIFICATION_TYPE":"U","NORAD_CAT_ID":67153,"ELEMENT_SET_NO":999,"REV_AT_EPOCH":1383,"BSTAR":0.0012899652,"MEAN_MOTION_DOT":0.00048086,"MEAN_MOTION_DDOT":0}]
